LANDSAT 9               
1 49260U 21088A   24267.16245768  .00001179  00000+0  27150-3 0  9995
2 49260  98.2231 335.5420 0001203  87.8114 272.3222 14.57132088158952
